{
  "type": "FeatureCollection",
  "features": [
    {
      "type": "Feature",
      "properties": {
        "norad_id": 43783,
        "name": "KAZSTSAT",
        "group": "resource",
        "lat": -14.15845429837361,
        "lon": 36.45313339078739,
        "alt_km": 572.3359647187726,
        "timestamp": "2025-12-25T22:42:16.654112+00:00",
        "meta_object_name": "KAZSTSAT",
        "meta_object_id": "2018-099AB",
        "meta_epoch": "2025-12-25T16:21:41.281056",
        "meta_mean_motion": 14.99372858,
        "meta_eccentricity": 0.0006346,
        "meta_inclination": 97.4512,
        "meta_ra_of_asc_node": 34.3083,
        "meta_arg_of_pericenter": 272.4562,
        "meta_mean_anomaly": 87.5935,
        "meta_ephemeris_type": 0,
        "meta_classification_type": "U",
        "meta_norad_cat_id": 43783,
        "meta_element_set_no": 999,
        "meta_rev_at_epoch": 38530,
        "meta_bstar": 6.286e-05,
        "meta_mean_motion_dot": 7.13e-06,
        "meta_mean_motion_ddot": 0,
        "tle_line1": "1 43783U 18099AB  25359.68172779  .00000713  00000+0  62860-4 0  9999",
        "tle_line2": "2 43783  97.4512  34.3083 0006346 272.4562  87.5935 14.99372858385305"
      },
      "geometry": {
        "type": "Point",
        "coordinates": [
          36.45313339078739,
          -14.15845429837361
        ]
      }
    },
    {
      "type": "Feature",
      "properties": {
        "norad_id": 43831,
        "name": "SAUDISAT 5A",
        "group": "resource",
        "lat": -30.133781566873637,
        "lon": -124.40520299487481,
        "alt_km": 501.91965993972735,
        "timestamp": "2025-12-25T22:42:16.654123+00:00",
        "meta_object_name": "SAUDISAT 5A",
        "meta_object_id": "2018-102A",
        "meta_epoch": "2025-12-25T18:38:17.602368",
        "meta_mean_motion": 15.2581528,
        "meta_eccentricity": 0.0011012,
        "meta_inclination": 97.333,
        "meta_ra_of_asc_node": 59.7156,
        "meta_arg_of_pericenter": 35.5526,
        "meta_mean_anomaly": 324.6444,
        "meta_ephemeris_type": 0,
        "meta_classification_type": "U",
        "meta_norad_cat_id": 43831,
        "meta_element_set_no": 999,
        "meta_rev_at_epoch": 38921,
        "meta_bstar": 0.00026639,
        "meta_mean_motion_dot": 6.752e-05,
        "meta_mean_motion_ddot": 0,
        "tle_line1": "1 43831U 18102A   25359.77659262  .00006752  00000+0  26639-3 0  9997",
        "tle_line2": "2 43831  97.3330  59.7156 0011012  35.5526 324.6444 15.25815280389217"
      },
      "geometry": {
        "type": "Point",
        "coordinates": [
          -124.40520299487481,
          -30.133781566873637
        ]
      }
    },
    {
      "type": "Feature",
      "properties": {
        "norad_id": 43833,
        "name": "SAUDISAT 5B",
        "group": "resource",
        "lat": -78.4204807491613,
        "lon": 101.64444035070342,
        "alt_km": 498.4281211181551,
        "timestamp": "2025-12-25T22:42:16.654133+00:00",
        "meta_object_name": "SAUDISAT 5B",
        "meta_object_id": "2018-102C",
        "meta_epoch": "2025-12-25T18:20:17.967840",
        "meta_mean_motion": 15.26160439,
        "meta_eccentricity": 0.0011756,
        "meta_inclination": 97.3425,
        "meta_ra_of_asc_node": 62.4654,
        "meta_arg_of_pericenter": 37.556,
        "meta_mean_anomaly": 322.6497,
        "meta_ephemeris_type": 0,
        "meta_classification_type": "U",
        "meta_norad_cat_id": 43833,
        "meta_element_set_no": 999,
        "meta_rev_at_epoch": 38932,
        "meta_bstar": 0.00023746,
        "meta_mean_motion_dot": 6.074e-05,
        "meta_mean_motion_ddot": 0,
        "tle_line1": "1 43833U 18102C   25359.76409685  .00006074  00000+0  23746-3 0  9993",
        "tle_line2": "2 43833  97.3425  62.4654 0011756  37.5560 322.6497 15.26160439389321"
      },
      "geometry": {
        "type": "Point",
        "coordinates": [
          101.64444035070342,
          -78.4204807491613
        ]
      }
    },
    {
      "type": "Feature",
      "properties": {
        "norad_id": 44622,
        "name": "GAOFEN-10R",
        "group": "resource",
        "lat": -30.901754694209384,
        "lon": -47.648262634238,
        "alt_km": 622.3815212165009,
        "timestamp": "2025-12-25T22:42:16.654144+00:00",
        "meta_object_name": "GAOFEN-10R",
        "meta_object_id": "2019-066A",
        "meta_epoch": "2025-12-25T17:59:11.510592",
        "meta_mean_motion": 14.82835396,
        "meta_eccentricity": 0.0006953,
        "meta_inclination": 98.0295,
        "meta_ra_of_asc_node": 307.3077,
        "meta_arg_of_pericenter": 3.406,
        "meta_mean_anomaly": 356.7199,
        "meta_ephemeris_type": 0,
        "meta_classification_type": "U",
        "meta_norad_cat_id": 44622,
        "meta_element_set_no": 999,
        "meta_rev_at_epoch": 33667,
        "meta_bstar": 0.00021898,
        "meta_mean_motion_dot": 1.718e-05,
        "meta_mean_motion_ddot": 0,
        "tle_line1": "1 44622U 19066A   25359.74943878  .00001718  00000+0  21898-3 0  9991",
        "tle_line2": "2 44622  98.0295 307.3077 0006953   3.4060 356.7199 14.82835396336670"
      },
      "geometry": {
        "type": "Point",
        "coordinates": [
          -47.648262634238,
          -30.901754694209384
        ]
      }
    },
    {
      "type": "Feature",
      "properties": {
        "norad_id": 44804,
        "name": "CARTOSAT-3",
        "group": "resource",
        "lat": 58.481426910105036,
        "lon": 47.0298458740933,
        "alt_km": 493.49338463611,
        "timestamp": "2025-12-25T22:42:16.654154+00:00",
        "meta_object_name": "CARTOSAT-3",
        "meta_object_id": "2019-081A",
        "meta_epoch": "2025-12-25T17:42:11.124000",
        "meta_mean_motion": 15.19260315,
        "meta_eccentricity": 0.0013682,
        "meta_inclination": 97.4559,
        "meta_ra_of_asc_node": 59.1548,
        "meta_arg_of_pericenter": 42.1168,
        "meta_mean_anomaly": 318.1116,
        "meta_ephemeris_type": 0,
        "meta_classification_type": "U",
        "meta_norad_cat_id": 44804,
        "meta_element_set_no": 999,
        "meta_rev_at_epoch": 33713,
        "meta_bstar": 0.0002137,
        "meta_mean_motion_dot": 4.447e-05,
        "meta_mean_motion_ddot": 0,
        "tle_line1": "1 44804U 19081A   25359.73762875  .00004447  00000+0  21370-3 0  9992",
        "tle_line2": "2 44804  97.4559  59.1548 0013682  42.1168 318.1116 15.19260315337136"
      },
      "geometry": {
        "type": "Point",
        "coordinates": [
          47.0298458740933,
          58.481426910105036
        ]
      }
    },
    {
      "type": "Feature",
      "properties": {
        "norad_id": 44819,
        "name": "GAOFEN-12 01",
        "group": "resource",
        "lat": 45.738783414030344,
        "lon": -166.02062745587412,
        "alt_km": 622.0874332132635,
        "timestamp": "2025-12-25T22:42:16.654165+00:00",
        "meta_object_name": "GAOFEN-12 01",
        "meta_object_id": "2019-082A",
        "meta_epoch": "2025-12-25T18:51:33.552864",
        "meta_mean_motion": 14.80672128,
        "meta_eccentricity": 0.0002266,
        "meta_inclination": 97.8125,
        "meta_ra_of_asc_node": 5.7243,
        "meta_arg_of_pericenter": 176.5297,
        "meta_mean_anomaly": 183.5932,
        "meta_ephemeris_type": 0,
        "meta_classification_type": "U",
        "meta_norad_cat_id": 44819,
        "meta_element_set_no": 999,
        "meta_rev_at_epoch": 32843,
        "meta_bstar": 7.3927e-05,
        "meta_mean_motion_dot": 5.17e-06,
        "meta_mean_motion_ddot": 0,
        "tle_line1": "1 44819U 19082A   25359.78580501  .00000517  00000+0  73927-4 0  9998",
        "tle_line2": "2 44819  97.8125   5.7243 0002266 176.5297 183.5932 14.80672128328434"
      },
      "geometry": {
        "type": "Point",
        "coordinates": [
          -166.02062745587412,
          45.738783414030344
        ]
      }
    },
    {
      "type": "Feature",
      "properties": {
        "norad_id": 44873,
        "name": "CSG-1",
        "group": "resource",
        "lat": -44.17790898423794,
        "lon": -171.19379214906368,
        "alt_km": 629.8671861227995,
        "timestamp": "2025-12-25T22:42:16.654175+00:00",
        "meta_object_name": "CSG-1",
        "meta_object_id": "2019-092A",
        "meta_epoch": "2025-12-25T18:02:42.967680",
        "meta_mean_motion": 14.82161611,
        "meta_eccentricity": 0.0001459,
        "meta_inclination": 97.8806,
        "meta_ra_of_asc_node": 180.8801,
        "meta_arg_of_pericenter": 85.0484,
        "meta_mean_anomaly": 275.0895,
        "meta_ephemeris_type": 0,
        "meta_classification_type": "U",
        "meta_norad_cat_id": 44873,
        "meta_element_set_no": 999,
        "meta_rev_at_epoch": 32578,
        "meta_bstar": 8.6722e-05,
        "meta_mean_motion_dot": 6.38e-06,
        "meta_mean_motion_ddot": 0,
        "tle_line1": "1 44873U 19092A   25359.75188620  .00000638  00000+0  86722-4 0  9993",
        "tle_line2": "2 44873  97.8806 180.8801 0001459  85.0484 275.0895 14.82161611325782"
      },
      "geometry": {
        "type": "Point",
        "coordinates": [
          -171.19379214906368,
          -44.17790898423794
        ]
      }
    }
  ]
}